STARLINK-1719
1 46331U 20062G   26092.83335647  .00196997  00000+0  20098-2 0  9996
2 46331  53.0410 221.0611 0008860 348.8018  95.7664 15.63902670  5819
STARLINK-2019
1 47641U 21012X   26092.83335647  .00125804  00000+0  13003-2 0  9994
2 47641  53.0432 185.0715 0003050 352.8246  49.1859 15.63869413  5924
